[{"OBJECT_NAME":"STARLINK-11303 [DTC]","OBJECT_ID":"2024-220J","EPOCH":"2026-03-09T22:21:13.906080","MEAN_MOTION":15.7086617,"ECCENTRICITY":0.00012327,"INCLINATION":42.9997,"RA_OF_ASC_NODE":41.3967,"ARG_OF_PERICENTER":269.8713,"MEAN_ANOMALY":90.2014,"EPHEMERIS_TYPE":0,"CLASSIFICATION_TYPE":"U","NORAD_CAT_ID":62096,"ELEMENT_SET_NO":999,"REV_AT_EPOCH":7509,"BSTAR":0.0015776744,"MEAN_MOTION_DOT":0.00207346,"MEAN_MOTION_DDOT":0},{"OBJECT_NAME":"OBJECT E","OBJECT_ID":"2021-035E","EPOCH":"2026-02-24T23:27:52.334784","MEAN_MOTION":15.69205353,"ECCENTRICITY":0.0007182,"INCLINATION":41.4547,"RA_OF_ASC_NODE":257.9148,"ARG_OF_PERICENTER":354.279,"MEAN_ANOMALY":5.7969,"EPHEMERIS_TYPE":0,"CLASSIFICATION_TYPE":"U","NORAD_CAT_ID":63523,"ELEMENT_SET_NO":999,"REV_AT_EPOCH":5075,"BSTAR":0.00060614223,"MEAN_MOTION_DOT":0.00073106,"MEAN_MOTION_DDOT":0}]
